SKYSAT-C1               
1 41601U 16040C   26157.66403240  .00010493  00000+0  30015-3 0  9997
2 41601  96.9565 189.9555 0004216  78.4382 281.7336 15.36120752556256
LAPAN-A3                
1 41603U 16040E   26158.26999513  .00003766  00000+0  12013-3 0  9992
2 41603  97.1490 154.7423 0011863  57.7705 302.4686 15.33041998553298
GAOFEN-3                
1 41727U 16049A   26158.30167082 -.00000072  00000+0 -86312-5 0  9995
2 41727  98.4014 166.2373 0001188  98.2745 261.8579 14.42213938517222
SKYSAT-C4               
1 41771U 16058B   26158.31541300  .00016963  00000+0  32285-3 0  9996
2 41771  96.9182 180.5027 0000861  88.9365 271.1986 15.48278698543941
SKYSAT-C5               
1 41772U 16058C   26157.34347483  .00009969  00000+0  30222-3 0  9992
2 41772  97.0475 198.4688 0002341  11.6429 348.4869 15.34314115542081
SKYSAT-C2               
1 41773U 16058D   26158.33042041  .00012887  00000+0  30551-3 0  9993
2 41773  97.0172 180.7981 0005190  91.5623 268.6219 15.41846048543530
SKYSAT-C3               
1 41774U 16058E   26157.82936035  .00024837  00000+0  41227-3 0  9992
2 41774  96.9015 189.0787 0002017  81.0888 279.0595 15.52094114544505
ALSAT-1B                
1 41785U 16059C   26158.24954348  .00000195  00000+0  38369-4 0  9994
2 41785  97.7754 167.4425 0007711 258.1131 101.9212 14.72266389519113
PATHFINDER 1            
1 41787U 16059E   26158.25085181  .00000702  00000+0  13099-3 0  9993
2 41787  97.8166 157.9756 0027155 236.4180 123.4433 14.67652251518250
SCATSAT 1               
1 41790U 16059H   26157.93340297  .00001138  00000+0  15626-3 0  9995
2 41790  98.1195 221.5937 0053273 281.3951  78.1278 14.79504470100076
GOKTURK 1A              
1 41875U 16073A   26158.25873211  .00000391  00000+0  85795-4 0  9993
2 41875  98.1257  53.0884 0001457  77.1178 283.0187 14.62767454507372
RESOURCESAT-2A          
1 41877U 16074A   26158.28767233 -.00000035  00000+0  43995-5 0  9998
2 41877  98.7521 231.8729 0003331 101.8940 258.2611 14.21612848492890
CARTOSAT-2D             
1 41948U 17008A   26158.21320330 -.00002158  00000+0 -99310-4 0  9991
2 41948  97.4121 217.7045 0003674 275.5836  84.4979 15.19255456516066
SENTINEL-2B             
1 42063U 17013A   26158.27740867  .00000094  00000+0  52656-4 0  9990
2 42063  98.5687 233.1914 0001211  85.7310 274.4011 14.30814227483222
CARTOSAT-2E             
1 42767U 17036C   26158.23079072  .00005940  00000+0  28502-3 0  9992
2 42767  97.4277 218.1973 0003241   1.8587 358.2659 15.19247949496631
FORMOSAT-5              
1 42920U 17049A   26157.98424122  .00000184  00000+0  57696-4 0  9990
2 42920  98.2253 233.5205 0012641 112.4850 247.7685 14.50895068465193
SENTINEL-5P             
1 42969U 17064A   26157.55848865  .00000063  00000+0  50983-4 0  9995
2 42969  98.7922  99.7656 0000975  81.2482 278.8805 14.19517174448056
SKYSAT-C11              
1 42987U 17068A   26158.16398981  .00027537  00000+0  37704-3 0  9996
2 42987  97.4344 306.5637 0001067  88.3614 271.7763 15.57375419481684
SKYSAT-C10              
1 42988U 17068B   26156.88094440  .00012783  00000+0  38541-3 0  9994
2 42988  97.4497 293.6207 0001298  89.3365 270.8026 15.34442038480625
SKYSAT-C9               
1 42989U 17068C   26158.11195808  .00014976  00000+0  36081-3 0  9996
2 42989  97.4414 295.7027 0008917 165.5731 194.5772 15.41312358481201
SKYSAT-C8               
1 42990U 17068D   26158.10653602  .00011859  00000+0  33215-3 0  9991
2 42990  97.4513 294.6195 0001592  99.6385 260.5039 15.36778300480768
SKYSAT-C7               
1 42991U 17068E   26157.64400368  .00013554  00000+0  37973-3 0  9998
2 42991  97.4524 295.1398 0006904 137.5981 222.5798 15.36715247480758
SKYSAT-C6               
1 42992U 17068F   26158.10197462  .00010141  00000+0  31024-3 0  9999
2 42992  97.4559 295.6102 0003824 164.8599 195.2759 15.34035159480771
CARTOSAT-2F             
1 43111U 18004A   26158.26265419  .00005287  00000+0  25370-3 0  9991
2 43111  97.4785 217.9944 0000143  28.1107 332.0135 15.19299337465826
GAOFEN-1 02             
1 43259U 18031A   26158.26845399  .00000949  00000+0  14379-3 0  9992
2 43259  98.0525 220.8228 0004388  55.4854 304.6770 14.76468187441235
GAOFEN-1 03             
1 43260U 18031B   26158.24661948  .00000886  00000+0  13471-3 0  9990
2 43260  98.0526 220.6605 0003824  98.7691 261.3951 14.76455452441228
GAOFEN-1 04             
1 43262U 18031D   26158.29012138  .00001140  00000+0  17123-3 0  9990
2 43262  98.0526 220.8934 0002220  92.1332 268.0132 14.76466849441223
SENTINEL-3B             
1 43437U 18039A   26157.95074310  .00000108  00000+0  62742-4 0  9995
2 43437  98.6250 225.6295 0000894  77.0075 283.1205 14.26738808422669
GAOFEN-5 01             
1 43461U 18043A   26158.19696684  .00000420  00000+0  96567-4 0  9997
2 43461  98.4565 129.5738 0002994 101.3657 258.7879 14.60598790430236
GAOFEN-6                
1 43484U 18048A   26158.24532292  .00000501  00000+0  78697-4 0  9991
2 43484  97.7757 221.2941 0011234 201.1963 158.8783 14.76620821431927
